[{"OBJECT_NAME":"TIANYAN 23","OBJECT_ID":"2025-051B","EPOCH":"2026-03-09T23:26:47.311872","MEAN_MOTION":15.41906998,"ECCENTRICITY":0.00071474,"INCLINATION":97.4557,"RA_OF_ASC_NODE":153.5654,"ARG_OF_PERICENTER":100.2199,"MEAN_ANOMALY":259.9854,"EPHEMERIS_TYPE":0,"CLASSIFICATION_TYPE":"U","NORAD_CAT_ID":63209,"ELEMENT_SET_NO":999,"REV_AT_EPOCH":5504,"BSTAR":0.00093276918,"MEAN_MOTION_DOT":0.00039734,"MEAN_MOTION_DDOT":0},{"OBJECT_NAME":"SL-3 R\/B","OBJECT_ID":"1977-057B","EPOCH":"2026-03-09T21:55:03.006336","MEAN_MOTION":15.45501116,"ECCENTRICITY":0.00061593,"INCLINATION":97.5777,"RA_OF_ASC_NODE":240.8437,"ARG_OF_PERICENTER":284.2853,"MEAN_ANOMALY":75.7711,"EPHEMERIS_TYPE":0,"CLASSIFICATION_TYPE":"U","NORAD_CAT_ID":10114,"ELEMENT_SET_NO":999,"REV_AT_EPOCH":66836,"BSTAR":0.00032201204,"MEAN_MOTION_DOT":0.00015369,"MEAN_MOTION_DDOT":0}]
